{"type": "FeatureCollection", "features": [ {"type": "Feature", "properties": {"norad_id": 38755, "name": "SPOT 6", "group": "resource", "lat": 40.32535969260807, "lon": 43.19014607064348, "alt_km": 694.09606254966, "timestamp": "2025-12-11T08:58:26.771116+00:00", "meta": {"OBJECT_NAME": "SPOT 6", "OBJECT_ID": "2012-047A", "EPOCH": "2025-12-11T03:50:54.246048", "MEAN_MOTION": 14.58600581, "ECCENTRICITY": 0.0001102, "INCLINATION": 98.1569, "RA_OF_ASC_NODE": 49.9734, "ARG_OF_PERICENTER": 97.0961, "MEAN_ANOMALY": 263.0363, "EPHEMERIS_TYPE": 0, "CLASSIFICATION_TYPE": "U", "NORAD_CAT_ID": 38755, "ELEMENT_SET_NO": 999, "REV_AT_EPOCH": 70564, "BSTAR": 0.00013152, "MEAN_MOTION_DOT": 5.67e-06, "MEAN_MOTION_DDOT": 0}, "tle": {"line1": "1 38755U 12047A   25345.16035007  .00000567  00000+0  13152-3 0  9995", "line2": "2 38755  98.1569  49.9734 0001102  97.0961 263.0363 14.58600581705643"}}, "geometry": {"type": "Point", "coordinates": [43.19014607064348, 40.32535969260807]}}, {"type": "Feature", "properties": {"norad_id": 39019, "name": "PLEIADES 1B", "group": "resource", "lat": -59.33998407360749, "lon": 72.08757144331508, "alt_km": 705.6595649791916, "timestamp": "2025-12-11T08:58:26.771128+00:00", "meta": {"OBJECT_NAME": "PLEIADES 1B", "OBJECT_ID": "2012-068A", "EPOCH": "2025-12-11T04:18:39.776256", "MEAN_MOTION": 14.58550088, "ECCENTRICITY": 0.0001216, "INCLINATION": 98.1791, "RA_OF_ASC_NODE": 57.8555, "ARG_OF_PERICENTER": 82.2893, "MEAN_ANOMALY": 277.8444, "EPHEMERIS_TYPE": 0, "CLASSIFICATION_TYPE": "U", "NORAD_CAT_ID": 39019, "ELEMENT_SET_NO": 999, "REV_AT_EPOCH": 69344, "BSTAR": 0.00012612, "MEAN_MOTION_DOT": 5.41e-06, "MEAN_MOTION_DDOT": 0}, "tle": {"line1": "1 39019U 12068A   25345.17962704  .00000541  00000+0  12612-3 0  9998", "line2": "2 39019  98.1791  57.8555 0001216  82.2893 277.8444 14.58550088693442"}}, "geometry": {"type": "Point", "coordinates": [72.08757144331508, -59.33998407360749]}}, {"type": "Feature", "properties": {"norad_id": 39030, "name": "GOKTURK 2", "group": "resource", "lat": 71.2991106277663, "lon": 163.57114738582996, "alt_km": 636.7642964629767, "timestamp": "2025-12-11T08:58:26.771139+00:00", "meta": {"OBJECT_NAME": "GOKTURK 2", "OBJECT_ID": "2012-073A", "EPOCH": "2025-12-11T03:45:41.420160", "MEAN_MOTION": 14.75287273, "ECCENTRICITY": 9.6e-05, "INCLINATION": 97.6891, "RA_OF_ASC_NODE": 186.888, "ARG_OF_PERICENTER": 100.869, "MEAN_ANOMALY": 259.2628, "EPHEMERIS_TYPE": 0, "CLASSIFICATION_TYPE": "U", "NORAD_CAT_ID": 39030, "ELEMENT_SET_NO": 999, "REV_AT_EPOCH": 69678, "BSTAR": 0.00013776, "MEAN_MOTION_DOT": 8.86e-06, "MEAN_MOTION_DDOT": 0}, "tle": {"line1": "1 39030U 12073A   25345.15672940  .00000886  00000+0  13776-3 0  9999", "line2": "2 39030  97.6891 186.8880 0000960 100.8690 259.2628 14.75287273696781"}}, "geometry": {"type": "Point", "coordinates": [163.57114738582996, 71.2991106277663]}}, {"type": "Feature", "properties": {"norad_id": 39084, "name": "LANDSAT 8", "group": "resource", "lat": 61.98706395223262, "lon": -110.79107661892574, "alt_km": 695.7956478840833, "timestamp": "2025-12-11T08:58:26.771150+00:00", "meta": {"OBJECT_NAME": "LANDSAT 8", "OBJECT_ID": "2013-008A", "EPOCH": "2025-12-11T05:08:37.576320", "MEAN_MOTION": 14.57111504, "ECCENTRICITY": 0.0001097, "INCLINATION": 98.2074, "RA_OF_ASC_NODE": 53.3103, "ARG_OF_PERICENTER": 87.7573, "MEAN_ANOMALY": 272.3751, "EPHEMERIS_TYPE": 0, "CLASSIFICATION_TYPE": "U", "NORAD_CAT_ID": 39084, "ELEMENT_SET_NO": 999, "REV_AT_EPOCH": 67052, "BSTAR": 0.00015057, "MEAN_MOTION_DOT": 6.33e-06, "MEAN_MOTION_DDOT": 0}, "tle": {"line1": "1 39084U 13008A   25345.21432380  .00000633  00000+0  15057-3 0  9990", "line2": "2 39084  98.2074  53.3103 0001097  87.7573 272.3751 14.57111504670521"}}, "geometry": {"type": "Point", "coordinates": [-110.79107661892574, 61.98706395223262]}}, {"type": "Feature", "properties": {"norad_id": 39086, "name": "SARAL", "group": "resource", "lat": -41.61620812732123, "lon": -18.358287573859805, "alt_km": 789.8192368516166, "timestamp": "2025-12-11T08:58:26.771161+00:00", "meta": {"OBJECT_NAME": "SARAL", "OBJECT_ID": "2013-009A", "EPOCH": "2025-12-11T04:35:19.711104", "MEAN_MOTION": 14.32756153, "ECCENTRICITY": 0.000284, "INCLINATION": 98.5503, "RA_OF_ASC_NODE": 169.1419, "ARG_OF_PERICENTER": 111.4806, "MEAN_ANOMALY": 248.6681, "EPHEMERIS_TYPE": 0, "CLASSIFICATION_TYPE": "U", "NORAD_CAT_ID": 39086, "ELEMENT_SET_NO": 999, "REV_AT_EPOCH": 66868, "BSTAR": 9.1073e-05, "MEAN_MOTION_DOT": 2.04e-06, "MEAN_MOTION_DDOT": 0}, "tle": {"line1": "1 39086U 13009A   25345.19120036  .00000204  00000+0  91073-4 0  9999", "line2": "2 39086  98.5503 169.1419 0002840 111.4806 248.6681 14.32756153668680"}}, "geometry": {"type": "Point", "coordinates": [-18.358287573859805, -41.61620812732123]}}, {"type": "Feature", "properties": {"norad_id": 39150, "name": "GAOFEN-1", "group": "resource", "lat": 34.698726275344846, "lon": -118.40304320294864, "alt_km": 625.350983704936, "timestamp": "2025-12-11T08:58:26.771172+00:00", "meta": {"OBJECT_NAME": "GAOFEN-1", "OBJECT_ID": "2013-018A", "EPOCH": "2025-12-11T05:04:04.732896", "MEAN_MOTION": 14.76527608, "ECCENTRICITY": 0.0018102, "INCLINATION": 97.9324, "RA_OF_ASC_NODE": 55.897, "ARG_OF_PERICENTER": 147.7195, "MEAN_ANOMALY": 212.5127, "EPHEMERIS_TYPE": 0, "CLASSIFICATION_TYPE": "U", "NORAD_CAT_ID": 39150, "ELEMENT_SET_NO": 999, "REV_AT_EPOCH": 68050, "BSTAR": 0.00010642, "MEAN_MOTION_DOT": 6.93e-06, "MEAN_MOTION_DDOT": 0}, "tle": {"line1": "1 39150U 13018A   25345.21116589  .00000693  00000+0  10642-3 0  9996", "line2": "2 39150  97.9324  55.8970 0018102 147.7195 212.5127 14.76527608680509"}}, "geometry": {"type": "Point", "coordinates": [-118.40304320294864, 34.698726275344846]}}, {"type": "Feature", "properties": {"norad_id": 39160, "name": "VNREDSAT 1", "group": "resource", "lat": -80.26710094774168, "lon": 166.26881357483205, "alt_km": 685.6055198148697, "timestamp": "2025-12-11T08:58:26.771183+00:00", "meta": {"OBJECT_NAME": "VNREDSAT 1", "OBJECT_ID": "2013-021B", "EPOCH": "2025-12-11T04:29:32.617248", "MEAN_MOTION": 14.64918002, "ECCENTRICITY": 0.0001309, "INCLINATION": 97.9371, "RA_OF_ASC_NODE": 40.516, "ARG_OF_PERICENTER": 78.5019, "MEAN_ANOMALY": 281.6332, "EPHEMERIS_TYPE": 0, "CLASSIFICATION_TYPE": "U", "NORAD_CAT_ID": 39160, "ELEMENT_SET_NO": 999, "REV_AT_EPOCH": 67276, "BSTAR": 0.0001506, "MEAN_MOTION_DOT": 7.6e-06, "MEAN_MOTION_DDOT": 0}, "tle": {"line1": "1 39160U 13021B   25345.18718307  .00000760  00000+0  15060-3 0  9997", "line2": "2 39160  97.9371  40.5160 0001309  78.5019 281.6332 14.64918002672764"}}, "geometry": {"type": "Point", "coordinates": [166.26881357483205, -80.26710094774168]}}, {"type": "Feature", "properties": {"norad_id": 39227, "name": "ARIRANG-5 (KOMPSAT-5)", "group": "resource", "lat": 31.115389941062777, "lon": -5.67092320408397, "alt_km": 551.4182729495942, "timestamp": "2025-12-11T08:58:26.771193+00:00", "meta": {"OBJECT_NAME": "ARIRANG-5 (KOMPSAT-5)", "OBJECT_ID": "2013-042A", "EPOCH": "2025-12-11T03:31:40.772352", "MEAN_MOTION": 15.04491349, "ECCENTRICITY": 0.0003795, "INCLINATION": 97.614, "RA_OF_ASC_NODE": 169.4742, "ARG_OF_PERICENTER": 59.1419, "MEAN_ANOMALY": 301.018, "EPHEMERIS_TYPE": 0, "CLASSIFICATION_TYPE": "U", "NORAD_CAT_ID": 39227, "ELEMENT_SET_NO": 999, "REV_AT_EPOCH": 67558, "BSTAR": 0.00017972, "MEAN_MOTION_DOT": 2.455e-05, "MEAN_MOTION_DDOT": 0}, "tle": {"line1": "1 39227U 13042A   25345.14699968  .00002455  00000+0  17972-3 0  9998", "line2": "2 39227  97.6140 169.4742 0003795  59.1419 301.0180 15.04491349675582"}}, "geometry": {"type": "Point", "coordinates": [-5.67092320408397, 31.115389941062777]}}, {"type": "Feature", "properties": {"norad_id": 39418, "name": "SKYSAT-A", "group": "resource", "lat": 52.81478743040828, "lon": -134.49708474340554, "alt_km": 532.4882650354111, "timestamp": "2025-12-11T08:58:26.771205+00:00", "meta": {"OBJECT_NAME": "SKYSAT-A", "OBJECT_ID": "2013-066C", "EPOCH": "2025-12-11T02:03:34.691616", "MEAN_MOTION": 15.11584453, "ECCENTRICITY": 0.0020649, "INCLINATION": 97.4109, "RA_OF_ASC_NODE": 35.3443, "ARG_OF_PERICENTER": 242.5836, "MEAN_ANOMALY": 117.3295, "EPHEMERIS_TYPE": 0, "CLASSIFICATION_TYPE": "U", "NORAD_CAT_ID": 39418, "ELEMENT_SET_NO": 999, "REV_AT_EPOCH": 66005, "BSTAR": 0.00036068, "MEAN_MOTION_DOT": 6.089e-05, "MEAN_MOTION_DDOT": 0}, "tle": {"line1": "1 39418U 13066C   25345.08581819  .00006089  00000+0  36068-3 0  9998", "line2": "2 39418  97.4109  35.3443 0020649 242.5836 117.3295 15.11584453660052"}}, "geometry": {"type": "Point", "coordinates": [-134.49708474340554, 52.81478743040828]}}, {"type": "Feature", "properties": {"norad_id": 39419, "name": "DUBAISAT-2", "group": "resource", "lat": -73.66226234414634, "lon": 2.318984026854546, "alt_km": 542.9645501631321, "timestamp": "2025-12-11T08:58:26.771216+00:00", "meta": {"OBJECT_NAME": "DUBAISAT-2", "OBJECT_ID": "2013-066D", "EPOCH": "2025-12-11T04:31:51.227040", "MEAN_MOTION": 15.0833578, "ECCENTRICITY": 0.0010839, "INCLINATION": 97.4456, "RA_OF_ASC_NODE": 335.6438, "ARG_OF_PERICENTER": 326.5445, "MEAN_ANOMALY": 33.5097, "EPHEMERIS_TYPE": 0, "CLASSIFICATION_TYPE": "U", "NORAD_CAT_ID": 39419, "ELEMENT_SET_NO": 999, "REV_AT_EPOCH": 65803, "BSTAR": 0.00057811, "MEAN_MOTION_DOT": 8.931e-05, "MEAN_MOTION_DDOT": 0}, "tle": {"line1": "1 39419U 13066D   25345.18878735  .00008931  00000+0  57811-3 0  9993", "line2": "2 39419  97.4456 335.6438 0010839 326.5445  33.5097 15.08335780658034"}}, "geometry": {"type": "Point", "coordinates": [2.318984026854546, -73.66226234414634]}}]}